[{"OBJECT_NAME":"STARLINK-3800","OBJECT_ID":"2022-045BA","EPOCH":"2026-01-30T22:02:20.089248","MEAN_MOTION":15.08853719,"ECCENTRICITY":0.00015691,"INCLINATION":53.2201,"RA_OF_ASC_NODE":358.6837,"ARG_OF_PERICENTER":95.0399,"MEAN_ANOMALY":265.0772,"EPHEMERIS_TYPE":0,"CLASSIFICATION_TYPE":"U","NORAD_CAT_ID":52379,"ELEMENT_SET_NO":999,"REV_AT_EPOCH":21022,"BSTAR":-0.00015896059,"MEAN_MOTION_DOT":-2.818e-5,"MEAN_MOTION_DDOT":0},{"OBJECT_NAME":"STARLINK-3793","OBJECT_ID":"2022-045BB","EPOCH":"2026-01-30T21:31:52.643712","MEAN_MOTION":15.08846473,"ECCENTRICITY":0.00015791,"INCLINATION":53.2226,"RA_OF_ASC_NODE":348.8093,"ARG_OF_PERICENTER":71.4952,"MEAN_ANOMALY":288.6212,"EPHEMERIS_TYPE":0,"CLASSIFICATION_TYPE":"U","NORAD_CAT_ID":52380,"ELEMENT_SET_NO":999,"REV_AT_EPOCH":21035,"BSTAR":-8.0435291e-5,"MEAN_MOTION_DOT":-1.568e-5,"MEAN_MOTION_DDOT":0},{"OBJECT_NAME":"STARLINK-3799","OBJECT_ID":"2022-045BD","EPOCH":"2026-01-30T07:27:58.004928","MEAN_MOTION":15.08846554,"ECCENTRICITY":0.00013501,"INCLINATION":53.2187,"RA_OF_ASC_NODE":1.4216,"ARG_OF_PERICENTER":85.7804,"MEAN_ANOMALY":274.3342,"EPHEMERIS_TYPE":0,"CLASSIFICATION_TYPE":"U","NORAD_CAT_ID":52382,"ELEMENT_SET_NO":999,"REV_AT_EPOCH":21013,"BSTAR":0.00019849432,"MEAN_MOTION_DOT":2.873e-5,"MEAN_MOTION_DDOT":0},{"OBJECT_NAME":"STARLINK-3811","OBJECT_ID":"2022-045BE","EPOCH":"2026-01-30T20:44:11.126688","MEAN_MOTION":15.08825247,"ECCENTRICITY":0.00018552,"INCLINATION":53.2215,"RA_OF_ASC_NODE":348.956,"ARG_OF_PERICENTER":87.4284,"MEAN_ANOMALY":272.6921,"EPHEMERIS_TYPE":0,"CLASSIFICATION_TYPE":"U","NORAD_CAT_ID":52383,"ELEMENT_SET_NO":999,"REV_AT_EPOCH":21035,"BSTAR":0.00010886721,"MEAN_MOTION_DOT":1.444e-5,"MEAN_MOTION_DDOT":0},{"OBJECT_NAME":"STARLINK-3870","OBJECT_ID":"2022-049A","EPOCH":"2026-01-30T21:19:56.286624","MEAN_MOTION":15.08838069,"ECCENTRICITY":0.00011091,"INCLINATION":53.2162,"RA_OF_ASC_NODE":238.8166,"ARG_OF_PERICENTER":91.0266,"MEAN_ANOMALY":269.0853,"EPHEMERIS_TYPE":0,"CLASSIFICATION_TYPE":"U","NORAD_CAT_ID":52451,"ELEMENT_SET_NO":999,"REV_AT_EPOCH":20640,"BSTAR":6.3698454e-5,"MEAN_MOTION_DOT":7.26e-6,"MEAN_MOTION_DDOT":0},{"OBJECT_NAME":"STARLINK-3909","OBJECT_ID":"2022-049B","EPOCH":"2026-01-30T21:35:48.816384","MEAN_MOTION":15.0883942,"ECCENTRICITY":0.00014918,"INCLINATION":53.2158,"RA_OF_ASC_NODE":238.6397,"ARG_OF_PERICENTER":84.5679,"MEAN_ANOMALY":275.5484,"EPHEMERIS_TYPE":0,"CLASSIFICATION_TYPE":"U","NORAD_CAT_ID":52452,"ELEMENT_SET_NO":999,"REV_AT_EPOCH":20640,"BSTAR":8.1588529e-5,"MEAN_MOTION_DOT":1.011e-5,"MEAN_MOTION_DDOT":0},{"OBJECT_NAME":"STARLINK-3872","OBJECT_ID":"2022-049C","EPOCH":"2026-01-30T22:44:44.990880","MEAN_MOTION":15.08832178,"ECCENTRICITY":0.00013705,"INCLINATION":53.2162,"RA_OF_ASC_NODE":238.5539,"ARG_OF_PERICENTER":88.2303,"MEAN_ANOMALY":271.8846,"EPHEMERIS_TYPE":0,"CLASSIFICATION_TYPE":"U","NORAD_CAT_ID":52453,"ELEMENT_SET_NO":999,"REV_AT_EPOCH":20641,"BSTAR":3.38658e-7,"MEAN_MOTION_DOT":-2.83e-6,"MEAN_MOTION_DDOT":0},{"OBJECT_NAME":"STARLINK-3888","OBJECT_ID":"2022-049D","EPOCH":"2026-01-30T22:50:01.473216","MEAN_MOTION":15.0884151,"ECCENTRICITY":0.00012822,"INCLINATION":53.2152,"RA_OF_ASC_NODE":238.5352,"ARG_OF_PERICENTER":89.5404,"MEAN_ANOMALY":270.5735,"EPHEMERIS_TYPE":0,"CLASSIFICATION_TYPE":"U","NORAD_CAT_ID":52454,"ELEMENT_SET_NO":999,"REV_AT_EPOCH":20641,"BSTAR":6.9567988e-5,"MEAN_MOTION_DOT":8.2e-6,"MEAN_MOTION_DDOT":0},{"OBJECT_NAME":"STARLINK-3890","OBJECT_ID":"2022-049E","EPOCH":"2026-01-30T22:40:46.114752","MEAN_MOTION":15.08863669,"ECCENTRICITY":0.00014756,"INCLINATION":53.2155,"RA_OF_ASC_NODE":238.5699,"ARG_OF_PERICENTER":72.3659,"MEAN_ANOMALY":287.7494,"EPHEMERIS_TYPE":0,"CLASSIFICATION_TYPE":"U","NORAD_CAT_ID":52455,"ELEMENT_SET_NO":999,"REV_AT_EPOCH":20641,"BSTAR":0.00030714256,"MEAN_MOTION_DOT":4.607e-5,"MEAN_MOTION_DDOT":0},{"OBJECT_NAME":"STARLINK-3896","OBJECT_ID":"2022-049F","EPOCH":"2026-01-30T19:24:44.732448","MEAN_MOTION":15.08855032,"ECCENTRICITY":0.00013383,"INCLINATION":53.2153,"RA_OF_ASC_NODE":239.1775,"ARG_OF_PERICENTER":74.4013,"MEAN_ANOMALY":285.7126,"EPHEMERIS_TYPE":0,"CLASSIFICATION_TYPE":"U","NORAD_CAT_ID":52456,"ELEMENT_SET_NO":999,"REV_AT_EPOCH":20639,"BSTAR":0.00027247376,"MEAN_MOTION_DOT":4.053e-5,"MEAN_MOTION_DDOT":0},{"OBJECT_NAME":"STARLINK-3899","OBJECT_ID":"2022-049G","EPOCH":"2026-01-30T19:18:03.396672","MEAN_MOTION":15.08835824,"ECCENTRICITY":0.00013179,"INCLINATION":53.2169,"RA_OF_ASC_NODE":239.1873,"ARG_OF_PERICENTER":96.587,"MEAN_ANOMALY":263.5273,"EPHEMERIS_TYPE":0,"CLASSIFICATION_TYPE":"U","NORAD_CAT_ID":52457,"ELEMENT_SET_NO":999,"REV_AT_EPOCH":20639,"BSTAR":3.0463389e-5,"MEAN_MOTION_DOT":1.97e-6,"MEAN_MOTION_DDOT":0},{"OBJECT_NAME":"STARLINK-3898","OBJECT_ID":"2022-049H","EPOCH":"2026-01-30T20:49:31.102176","MEAN_MOTION":15.08838855,"ECCENTRICITY":0.00013318,"INCLINATION":53.2162,"RA_OF_ASC_NODE":238.9111,"ARG_OF_PERICENTER":95.1061,"MEAN_ANOMALY":265.0083,"EPHEMERIS_TYPE":0,"CLASSIFICATION_TYPE":"U","NORAD_CAT_ID":52458,"ELEMENT_SET_NO":999,"REV_AT_EPOCH":20640,"BSTAR":4.1382063e-5,"MEAN_MOTION_DOT":3.71e-6,"MEAN_MOTION_DDOT":0},{"OBJECT_NAME":"STARLINK-3856","OBJECT_ID":"2022-049J","EPOCH":"2026-01-30T18:52:53.446080","MEAN_MOTION":15.08835929,"ECCENTRICITY":0.00011257,"INCLINATION":53.2158,"RA_OF_ASC_NODE":229.276,"ARG_OF_PERICENTER":94.5118,"MEAN_ANOMALY":265.6003,"EPHEMERIS_TYPE":0,"CLASSIFICATION_TYPE":"U","NORAD_CAT_ID":52459,"ELEMENT_SET_NO":999,"REV_AT_EPOCH":20652,"BSTAR":1.6336922e-5,"MEAN_MOTION_DOT":-2.8e-7,"MEAN_MOTION_DDOT":0},{"OBJECT_NAME":"STARLINK-3900","OBJECT_ID":"2022-049L","EPOCH":"2026-01-30T20:24:17.631648","MEAN_MOTION":15.0884262,"ECCENTRICITY":0.00013638,"INCLINATION":53.2159,"RA_OF_ASC_NODE":218.9872,"ARG_OF_PERICENTER":88.6888,"MEAN_ANOMALY":271.426,"EPHEMERIS_TYPE":0,"CLASSIFICATION_TYPE":"U","NORAD_CAT_ID":52461,"ELEMENT_SET_NO":999,"REV_AT_EPOCH":20667,"BSTAR":5.1807142e-5,"MEAN_MOTION_DOT":5.37e-6,"MEAN_MOTION_DDOT":0},{"OBJECT_NAME":"STARLINK-3903","OBJECT_ID":"2022-049M","EPOCH":"2026-01-30T21:54:26.377056","MEAN_MOTION":15.08836898,"ECCENTRICITY":0.00012361,"INCLINATION":53.2163,"RA_OF_ASC_NODE":228.7193,"ARG_OF_PERICENTER":86.7051,"MEAN_ANOMALY":273.4082,"EPHEMERIS_TYPE":0,"CLASSIFICATION_TYPE":"U","NORAD_CAT_ID":52462,"ELEMENT_SET_NO":999,"REV_AT_EPOCH":20654,"BSTAR":0.00010581992,"MEAN_MOTION_DOT":1.397e-5,"MEAN_MOTION_DDOT":0},{"OBJECT_NAME":"STARLINK-3885","OBJECT_ID":"2022-049N","EPOCH":"2026-01-30T20:18:59.876640","MEAN_MOTION":15.08840337,"ECCENTRICITY":0.00013282,"INCLINATION":53.2156,"RA_OF_ASC_NODE":219.0048,"ARG_OF_PERICENTER":89.6755,"MEAN_ANOMALY":270.4389,"EPHEMERIS_TYPE":0,"CLASSIFICATION_TYPE":"U","NORAD_CAT_ID":52463,"ELEMENT_SET_NO":999,"REV_AT_EPOCH":20667,"BSTAR":5.9905161e-5,"MEAN_MOTION_DOT":6.66e-6,"MEAN_MOTION_DDOT":0},{"OBJECT_NAME":"STARLINK-3904","OBJECT_ID":"2022-049P","EPOCH":"2026-01-30T21:58:21.637344","MEAN_MOTION":15.08835649,"ECCENTRICITY":0.00013251,"INCLINATION":53.2169,"RA_OF_ASC_NODE":228.6981,"ARG_OF_PERICENTER":90.8491,"MEAN_ANOMALY":269.2653,"EPHEMERIS_TYPE":0,"CLASSIFICATION_TYPE":"U","NORAD_CAT_ID":52464,"ELEMENT_SET_NO":999,"REV_AT_EPOCH":20654,"BSTAR":6.1950514e-5,"MEAN_MOTION_DOT":6.98e-6,"MEAN_MOTION_DDOT":0},{"OBJECT_NAME":"STARLINK-3863","OBJECT_ID":"2022-049Q","EPOCH":"2026-01-30T20:13:41.623104","MEAN_MOTION":15.08843383,"ECCENTRICITY":0.00016091,"INCLINATION":53.2157,"RA_OF_ASC_NODE":219.0241,"ARG_OF_PERICENTER":90.0634,"MEAN_ANOMALY":270.0543,"EPHEMERIS_TYPE":0,"CLASSIFICATION_TYPE":"U","NORAD_CAT_ID":52465,"ELEMENT_SET_NO":999,"REV_AT_EPOCH":20667,"BSTAR":7.3161761e-5,"MEAN_MOTION_DOT":8.77e-6,"MEAN_MOTION_DDOT":0},{"OBJECT_NAME":"STARLINK-3873","OBJECT_ID":"2022-049S","EPOCH":"2026-01-30T21:47:46.417632","MEAN_MOTION":15.08809366,"ECCENTRICITY":0.00013023,"INCLINATION":53.2151,"RA_OF_ASC_NODE":228.73,"ARG_OF_PERICENTER":65.2059,"MEAN_ANOMALY":294.9068,"EPHEMERIS_TYPE":0,"CLASSIFICATION_TYPE":"U","NORAD_CAT_ID":52467,"ELEMENT_SET_NO":999,"REV_AT_EPOCH":20654,"BSTAR":-0.00055722414,"MEAN_MOTION_DOT":-9.138e-5,"MEAN_MOTION_DDOT":0},{"OBJECT_NAME":"STARLINK-3864","OBJECT_ID":"2022-049T","EPOCH":"2026-01-30T21:26:33.597888","MEAN_MOTION":15.08846898,"ECCENTRICITY":0.00012573,"INCLINATION":53.2162,"RA_OF_ASC_NODE":228.7947,"ARG_OF_PERICENTER":97.057,"MEAN_ANOMALY":263.0565,"EPHEMERIS_TYPE":0,"CLASSIFICATION_TYPE":"U","NORAD_CAT_ID":52468,"ELEMENT_SET_NO":999,"REV_AT_EPOCH":20654,"BSTAR":-4.1966379e-5,"MEAN_MOTION_DOT":-9.56e-6,"MEAN_MOTION_DDOT":0},{"OBJECT_NAME":"STARLINK-3828","OBJECT_ID":"2022-049U","EPOCH":"2026-01-30T21:37:09.830208","MEAN_MOTION":15.08841375,"ECCENTRICITY":0.00012973,"INCLINATION":53.2168,"RA_OF_ASC_NODE":228.7682,"ARG_OF_PERICENTER":89.3737,"MEAN_ANOMALY":270.7404,"EPHEMERIS_TYPE":0,"CLASSIFICATION_TYPE":"U","NORAD_CAT_ID":52469,"ELEMENT_SET_NO":999,"REV_AT_EPOCH":20654,"BSTAR":-3.7388051e-5,"MEAN_MOTION_DOT":-8.83e-6,"MEAN_MOTION_DDOT":0},{"OBJECT_NAME":"STARLINK-3859","OBJECT_ID":"2022-049V","EPOCH":"2026-01-30T21:15:56.110176","MEAN_MOTION":15.08859447,"ECCENTRICITY":0.00016461,"INCLINATION":53.2146,"RA_OF_ASC_NODE":228.8253,"ARG_OF_PERICENTER":84.1282,"MEAN_ANOMALY":275.9898,"EPHEMERIS_TYPE":0,"CLASSIFICATION_TYPE":"U","NORAD_CAT_ID":52470,"ELEMENT_SET_NO":999,"REV_AT_EPOCH":20654,"BSTAR":0.00024785931,"MEAN_MOTION_DOT":3.661e-5,"MEAN_MOTION_DDOT":0},{"OBJECT_NAME":"STARLINK-3862","OBJECT_ID":"2022-049W","EPOCH":"2026-01-30T21:33:14.669280","MEAN_MOTION":15.08837136,"ECCENTRICITY":0.00014879,"INCLINATION":53.216,"RA_OF_ASC_NODE":228.7841,"ARG_OF_PERICENTER":86.1505,"MEAN_ANOMALY":273.9657,"EPHEMERIS_TYPE":0,"CLASSIFICATION_TYPE":"U","NORAD_CAT_ID":52471,"ELEMENT_SET_NO":999,"REV_AT_EPOCH":20654,"BSTAR":3.1872222e-5,"MEAN_MOTION_DOT":2.19e-6,"MEAN_MOTION_DDOT":0}]
